OBJECT_NAME,OBJECT_ID,EPOCH,MEAN_MOTION,ECCENTRICITY,INCLINATION,RA_OF_ASC_NODE,ARG_OF_PERICENTER,MEAN_ANOMALY,EPHEMERIS_TYPE,CLASSIFICATION_TYPE,NORAD_CAT_ID,ELEMENT_SET_NO,REV_AT_EPOCH,BSTAR,MEAN_MOTION_DOT,MEAN_MOTION_DDOT
ALOS-2,2014-029A,2026-06-18T13:25:37.418304,14.79472986,.00016588,97.9226,266.7032,90.7575,269.3827,0,U,39766,999,65178,.16787704E-3,.1203E-4,0
KAZEOSAT 2,2014-033A,2026-06-18T13:51:13.785696,14.85471859,.00077168,97.5397,9.1150,324.2943,35.7756,0,U,40010,999,64916,.95048018E-4,.77E-5,0
HODOYOSHI-4,2014-033B,2026-06-18T13:56:03.109056,14.88128190,.00224763,97.5445,354.3351,303.5087,56.3982,0,U,40011,999,64901,.59146119E-4,.494E-5,0
DEIMOS-2,2014-033D,2026-06-18T14:09:27.952704,14.93726039,.000134,97.5819,44.0290,52.5662,307.5680,0,U,40013,999,63793,.84179038E-4,.837E-5,0
HODOYOSHI-3,2014-033F,2026-06-18T11:09:29.486304,14.85390737,.00325717,97.6418,332.4539,353.0921,6.9842,0,U,40015,999,64781,.95725416E-4,.779E-5,0
SPOT 7,2014-034A,2026-06-18T14:52:34.745376,14.60960562,.00012459,98.0627,232.0749,90.7586,269.3758,0,U,40053,999,63734,.13107877E-3,.597E-5,0
SKYSAT-B,2014-037D,2026-06-18T14:30:28.423296,14.88031001,.00041647,98.3840,128.6502,275.7139,84.3601,0,U,40072,999,64617,.11733227E-3,.1016E-4,0
WORLDVIEW-3 (WV-3),2014-048A,2026-06-18T13:58:35.073696,14.85023943,.00008707,97.8567,244.3960,24.0405,336.0850,0,U,40115,999,64211,.85015574E-4,.672E-5,0
GAOFEN-2,2014-049A,2026-06-18T14:17:11.339232,14.80899809,.00062135,98.0107,233.8013,221.7128,138.3611,0,U,40118,999,63944,.89197177E-4,.636E-5,0
YAOGAN-21,2014-053A,2026-06-18T14:30:59.676768,15.26392815,.00099383,97.1465,209.7802,89.4525,270.7853,0,U,40143,999,65517,.27582692E-3,.7118E-4,0
YAOGAN-22,2014-063A,2026-06-18T06:00:34.814880,13.15531025,.00063663,100.7725,320.5412,182.8960,177.2116,0,U,40275,999,55995,-.29386663E-4,-.58E-6,0
ASNARO,2014-070A,2026-06-18T14:35:41.155008,15.19457966,.00057172,97.3452,245.6844,160.7100,199.4353,0,U,40298,999,64422,.45440841E-3,.9577E-4,0
YAOGAN-24,2014-072A,2026-06-18T15:23:08.155104,14.76224846,.00125246,98.1497,306.9912,258.4257,101.5547,0,U,40310,999,62393,.873579E-4,.552E-5,0
CBERS 4,2014-079A,2026-06-18T15:22:06.790368,14.35510163,.00017961,98.3528,226.4265,62.3091,297.8277,0,U,40336,999,60416,.11385621E-3,.285E-5,0
YAOGAN-26,2014-088A,2026-06-18T14:54:09.088128,15.47396259,.00059079,97.0639,169.7965,64.1269,296.0590,0,U,40362,999,63792,.30961635E-3,.15779E-3,0
SMAP,2015-003A,2026-06-18T14:01:12.424512,14.63367647,.00013397,98.1276,176.6589,96.2556,263.8799,0,U,40376,999,60782,.71678521E-4,.323E-5,0
KOMPSAT-3A,2015-014A,2026-06-18T14:15:28.701216,15.54047488,.00566382,97.6888,161.0593,169.3743,190.8721,0,U,40536,999,62203,.28650043E-3,.19812E-3,0
SENTINEL-2A,2015-028A,2026-06-18T14:43:08.584320,14.30816773,.00011112,98.5686,244.4449,91.1364,268.9946,0,U,40697,999,57393,.16800463E-3,.397E-5,0
GAOFEN-8,2015-030A,2026-06-18T15:23:19.126176,15.45994900,.00088865,97.6900,3.0978,181.1028,179.0202,0,U,40701,999,61167,.31279046E-3,.1519E-3,0
CARBONITE 1 (CBNT-1),2015-032D,2026-06-18T14:22:22.135584,14.83592420,.00130771,97.6503,347.6055,293.1202,66.8634,0,U,40718,999,58955,.21331786E-3,.171E-4,0
YAOGAN-27,2015-040A,2026-06-18T14:59:59.845344,13.16070931,.00076701,100.1151,155.9455,207.0003,153.0713,0,U,40878,999,51785,.9327662E-3,.312E-5,0
GAOFEN-9 01,2015-047A,2026-06-18T14:44:58.740000,14.82886254,.00284741,97.6274,205.2446,133.3243,227.0352,0,U,40894,999,58040,.10432755E-3,.8E-5,0
YAOGAN-28,2015-064A,2026-06-18T15:11:30.336864,15.27435946,.00107639,97.3082,307.8647,178.2726,181.8553,0,U,41026,999,59090,.19943808E-3,.529E-4,0
YAOGAN-29,2015-069A,2026-06-18T14:16:16.870080,14.83088137,.00025935,98.0020,198.2301,51.9801,308.1646,0,U,41038,999,57083,.80610858E-4,.602E-5,0
KENT RIDGE 1,2015-077B,2026-06-18T14:29:54.580416,15.23139502,.00082457,14.9794,255.4525,258.6029,101.3367,0,U,41167,999,58131,.10651518E-3,.3355E-4,0
GAOFEN-4,2015-083A,2026-06-18T15:08:05.976672,1.00268207,.00043642,0.3622,83.8351,113.5197,42.2100,0,U,41194,999,3854,0,-.341E-5,0
JASON-3,2016-002A,2026-06-18T13:20:40.783776,12.87628056,.00085025,66.0404,122.9571,272.7605,87.2441,0,U,41240,999,48742,.47501123E-4,-.5E-6,0
SENTINEL-3A,2016-011A,2026-06-18T14:51:34.509024,14.26732839,.0001405,98.6250,236.9826,101.7264,258.4074,0,U,41335,999,53826,.56613673E-4,.93E-6,0
ZIYUAN 3-02 (ZY 3-02),2016-033A,2026-06-18T15:16:48.961920,15.21191353,.00123325,97.3834,245.3844,285.5903,74.3971,0,U,41556,999,55820,.22999224E-3,.5069E-4,0
CARTOSAT-2C,2016-040A,2026-06-18T15:23:29.426784,15.19203977,.00100336,97.4477,229.6005,126.3472,233.8690,0,U,41599,999,55393,.2431927E-3,.5057E-4,0
