ALOS-2                  
1 39766U 14029A   26169.55946086  .00001203  00000+0  16788-3 0  9992
2 39766  97.9226 266.7032 0001658  90.7575 269.3827 14.79472986651788
KAZEOSAT 2              
1 40010U 14033A   26169.57724289  .00000770  00000+0  95048-4 0  9997
2 40010  97.5397   9.1150 0007716 324.2943  35.7756 14.85471859649162
HODOYOSHI-4             
1 40011U 14033B   26169.58059154  .00000494  00000+0  59146-4 0  9993
2 40011  97.5445 354.3351 0022476 303.5087  56.3982 14.88128190649018
DEIMOS-2                
1 40013U 14033D   26169.58990686  .00000837  00000+0  84179-4 0  9994
2 40013  97.5819  44.0290 0001340  52.5662 307.5680 14.93726039637933
HODOYOSHI-3             
1 40015U 14033F   26169.46492461  .00000779  00000+0  95725-4 0  9995
2 40015  97.6418 332.4539 0032571 353.0921   6.9842 14.85390737647819
SPOT 7                  
1 40053U 14034A   26169.61984659  .00000597  00000+0  13108-3 0  9992
2 40053  98.0627 232.0749 0001245  90.7586 269.3758 14.60960562637342
SKYSAT-B                
1 40072U 14037D   26169.60449564  .00001016  00000+0  11733-3 0  9995
2 40072  98.3840 128.6502 0004164 275.7139  84.3601 14.88031001646172
WORLDVIEW-3 (WV-3)      
1 40115U 14048A   26169.58235039  .00000672  00000+0  85016-4 0  9995
2 40115  97.8567 244.3960 0000870  24.0405 336.0850 14.85023943642111
GAOFEN-2                
1 40118U 14049A   26169.59527013  .00000636  00000+0  89197-4 0  9990
2 40118  98.0107 233.8013 0006213 221.7128 138.3611 14.80899809639441
YAOGAN-21               
1 40143U 14053A   26169.60485737  .00007118  00000+0  27583-3 0  9993
2 40143  97.1465 209.7802 0009938  89.4525 270.7853 15.26392815655174
YAOGAN-22               
1 40275U 14063A   26169.25040295 -.00000058  00000+0 -29387-4 0  9990
2 40275 100.7725 320.5412 0006366 182.8960 177.2116 13.15531025559958
ASNARO                  
1 40298U 14070A   26169.60811522  .00009577  00000+0  45441-3 0  9992
2 40298  97.3452 245.6844 0005717 160.7100 199.4353 15.19457966644228
YAOGAN-24               
1 40310U 14072A   26169.64106661  .00000552  00000+0  87358-4 0  9992
2 40310  98.1497 306.9912 0012524 258.4257 101.5547 14.76224846623935
CBERS 4                 
1 40336U 14079A   26169.64035637  .00000285  00000+0  11386-3 0  9991
2 40336  98.3528 226.4265 0001796  62.3091 297.8277 14.35510163604162
YAOGAN-26               
1 40362U 14088A   26169.62093852  .00015779  00000+0  30962-3 0  9996
2 40362  97.0639 169.7965 0005907  64.1269 296.0590 15.47396259637922
SMAP                    
1 40376U 15003A   26169.58417158  .00000323  00000+0  71679-4 0  9993
2 40376  98.1276 176.6589 0001339  96.2556 263.8799 14.63367647607820
KOMPSAT-3A              
1 40536U 15014A   26169.59408219  .00019812  00000+0  28650-3 0  9995
2 40536  97.6888 161.0593 0056638 169.3743 190.8721 15.54047488622039
SENTINEL-2A             
1 40697U 15028A   26169.61329380  .00000397  00000+0  16800-3 0  9994
2 40697  98.5686 244.4449 0001111  91.1364 268.9946 14.30816773573930
GAOFEN-8                
1 40701U 15030A   26169.64119359  .00015190  00000+0  31279-3 0  9993
2 40701  97.6900   3.0978 0008886 181.1028 179.0202 15.45994900611671
CARBONITE 1 (CBNT-1)    
1 40718U 15032D   26169.59886731  .00001710  00000+0  21332-3 0  9994
2 40718  97.6503 347.6055 0013077 293.1202  66.8634 14.83592420589552
YAOGAN-27               
1 40878U 15040A   26169.62499821  .00000312  00000+0  93277-3 0  9998
2 40878 100.1151 155.9455 0007670 207.0003 153.0713 13.16070931517851
GAOFEN-9 01             
1 40894U 15047A   26169.61456875  .00000800  00000+0  10433-3 0  9999
2 40894  97.6274 205.2446 0028474 133.3243 227.0352 14.82886254580405
YAOGAN-28               
1 41026U 15064A   26169.63299001  .00005290  00000+0  19944-3 0  9998
2 41026  97.3082 307.8647 0010763 178.2726 181.8553 15.27435946590909
YAOGAN-29               
1 41038U 15069A   26169.59463970  .00000602  00000+0  80611-4 0  9991
2 41038  98.0020 198.2301 0002593  51.9801 308.1646 14.83088137570838
KENT RIDGE 1            
1 41167U 15077B   26169.60410394  .00003355  00000+0  10652-3 0  9992
2 41167  14.9794 255.4525 0008245 258.6029 101.3367 15.23139502581314
GAOFEN-4                
1 41194U 15083A   26169.63062473 -.00000341  00000+0  00000+0 0  9998
2 41194   0.3622  83.8351 0004364 113.5197  42.2100  1.00268207 38541
JASON-3                 
1 41240U 16002A   26169.55602759 -.00000050  00000+0  47501-4 0  9999
2 41240  66.0404 122.9571 0008502 272.7605  87.2441 12.87628056487420
SENTINEL-3A             
1 41335U 16011A   26169.61914941  .00000093  00000+0  56614-4 0  9991
2 41335  98.6250 236.9826 0001405 101.7264 258.4074 14.26732839538264
ZIYUAN 3-02 (ZY 3-02)   
1 41556U 16033A   26169.63667780  .00005069  00000+0  22999-3 0  9994
2 41556  97.3834 245.3844 0012332 285.5903  74.3971 15.21191353558202
CARTOSAT-2C             
1 41599U 16040A   26169.64131281  .00005057  00000+0  24319-3 0  9997
2 41599  97.4477 229.6005 0010033 126.3472 233.8690 15.19203977553934
